name,address,city,state,zip,phone
Tadeo Fritche,235 Loeprich Alley,Atlanta,GA,,(910) 8145190
Niki Woodruffe,0 Continental Pass,Houston,TX,,(283) 1549055
Baron Ratnege,50 Judy Terrace,Akron,OH,290 01,(525) 3657363
Eve Blizard,8 Paget Junction,Athens,GA,8400,(770) 1898843
Arda Eden,028 Clove Alley,Rochester,NY,,(762) 2162044
Virgina Teideman,7 Nevada Road,Huntington,WV,,(565) 4332024
Bambi Jakeway,9 Ramsey Road,Lexington,KY,,(207) 9926429
Arri Blueman,35171 Summerview Lane,Memphis,TN,658381,(657) 3223103
Callean Eastwell,41 Roxbury Lane, ‚ ,DC,397243,(643) 6255903
Sam Holgan,045 Westport Lane,Jackson,MS,1105,(715) 1460718
Harcourt Downe,8 Jenifer Point,Corpus Christi,TX,504028,(971) 8293517
Rose Ricardot,68330 Victoria Crossing,Orange,CA,5419,(845) 1275482
Jose Densell,42 Lakewood Gardens Pass,Charlottesville,VA,,(485) 2713618
Helaina Gooch,32 Macpherson Drive,Richmond,VA,L-8511,(976) 2420730
Trude Ladbrook,`â„â‚¬â€¹â€ºï¬ï¬‚â€¡Â°Â·â€šâ€”Â±,Buffalo,NY,99599,(907) 3796662
Fulton Agirre,15434 Pawling Parkway,San Diego,CA,,(378) 2589166
Randal Marciskewski,5 Jenna Park,Minneapolis,MN,,(936) 7738144
Leland Okey,4360 Acker Parkway,Murfreesboro,TN,1105,(894) 1618930
Pepita Munro,4355 Northwestern Road,Canton,OH,,(792) 4971507
Reider Foresight,6 Riverside Drive,Los Angeles,CA,,(358) 1117177
Carly Greave,613 Mayfield Court,San Antonio,TX,,(650) 2218146
Nita Merigon,7 Cambridge Park,Tulsa,OK,90140,(485) 1185209
Aloisia Filipputti,8177 Corscot Pass,Scottsdale,AZ,,(751) 3892215
Leontine Smythe,7 Meadow Vale Crossing,Columbia,SC,,(871) 1542381
Robinson Iddons,9 Upham Hill,Henderson,NV,,(577) 4018621
Elvyn McCathy,148 Sutherland Center,Denver,CO,,(669) 8614416
Fredericka Lunt,80 Independence Way,Chico,CA,57404 CEDEX,(270) 5754664
Donica Grenshields,83 Hintze Crossing,Wilkes Barre,PA,N2R,(725) 5907006
Shina Livezey,7226 Rieder Parkway,Plano,TX,4415-761,(306) 2545380
Esme Tabrett,77 Grayhawk Street,Hollywood,FL,669-5313,(254) 8639886
Dov Dwelley,1966 Kings Court,Savannah,GA,06721 CEDEX,(130) 7454352
Alon Wyllcock,3028 Arrowood Court,Tampa,FL,69500-000,(199) 8585563
Anthiathia Sweeting,730 New Castle Crossing,Topeka,KS,1129,(413) 1679535
Nichol Laville,27 Hauk Avenue,Silver Spring,MD,3080-570,(881) 7777699
Clementine Kesey,891 Portage Point,Mansfield,OH,6203,(243) 6080322
Pieter Tooley,0370 Amoth Pass,Beaumont,TX,,(808) 3406663
Jilli Greg,066 Boyd Street,Laurel,MD,31000,(662) 8454744
Bucky Eddowes,65 Bellgrove Center,Atlanta,GA,,(661) 3654168
Ingmar Bentote,5882 Ridge Oak Alley,Baltimore,MD,4755-522,(407) 2111122
Jarrett Maskall,971 Browning Circle,Sacramento,CA,,(446) 4656198
Mickey Ginnelly,0009 Claremont Junction,Pittsburgh,PA,,(996) 5739046
Harry Phillps,6420 Comanche Lane,New Orleans,LA,613261,(405) 4776546
Wallis Simpson,0 Mariners Cove Place,Los Angeles,CA,,(173) 9744990
Sonya Flanagan,2125 Forest Junction,Huntington,WV,,(591) 7582736
Clarisse Pemberton,933 Schlimgen Alley,Glendale,CA,,(702) 7200121
Maddy Corris,4 Onsgard Junction,San Bernardino,CA,5180-205,(590) 4101168
Cordula Stambridge,4 Loeprich Place,Charlotte,NC,,(237) 6800263
Roberta Shaw,5 Sachs Center,Laurel,MD,,(415) 8518181
Gabie Morden,8008 Mandrake Court,Hayward,CA,,(282) 2904203
Solomon Deaconson,71331 Sauthoff Circle,Littleton,CO,,(809) 9938567
Buddy Kraft,47 Knutson Park,Memphis,TN,,(995) 4685378
Valaria Furmonger,9176 Village Parkway,Duluth,GA,731 33,(286) 1680576
Binky Terne,97 Maple Point,Philadelphia,PA,30220,(350) 4184714
Elvyn Troup,9667 Toban Place,Baton Rouge,LA,,(946) 4761869
Ganny Gennings,6906 Aberg Lane,Fredericksburg,VA,2755-013,(692) 5476621
Colman Ridley,6251 Luster Avenue,Houston,TX,,(148) 5475988
Rachele Shulem,16 Warbler Court,Port Saint Lucie,FL,356003,(354) 1991512
Wilden Kerfoot,73 Kenwood Circle,Schaumburg,IL,46140,(523) 7127856
Patsy Gomersall,20 Mayer Drive,Corpus Christi,TX,,(359) 7232493
Woodrow Marston,4223 1st Terrace,Durham,NC,738 34,(687) 8723726
Pierre Shavel,39185 Cardinal Alley,New York City,NY,66225,(913) 8427758
Lethia Valentino,6878 Killdeer Lane,Tacoma,WA,65022 CEDEX 9,(833) 6408250
Fanny Searchfield,4 Melody Alley,El Paso,TX,55530-000,(705) 4126523
Antoinette Matczak,5903 Bartillon Plaza,Washington,DC,,(388) 8199662
Jenilee Mattheeuw,43 Scofield Hill,Cleveland,OH,,(832) 9008758
Kristin MacKereth,37 Forest Run Lane,Seattle,WA,69115-000,(955) 2905757
Jareb Evenden,79195 Johnson Pass,Camden,NJ,,(819) 6319101
Wesley Durek,41392 Evergreen Junction,Washington,DC,42242,(234) 6717522
Anitra McDirmid,7 Maple Road,Harrisburg,PA,,(189) 3602792
Hatty Dawidowitz,55588 Everett Hill,Stamford,CT,,(200) 4954106
Vinita Forson,1127 Texas Center,Charleston,SC,,(307) 5826610
Karena Larn,595 Monterey Parkway,Philadelphia,PA,,(336) 8395927
Christophorus Mouat,2001 Truax Way,Pasadena,CA,63019 CEDEX 2,(515) 3459088
Osborne Nisius,30426 Helena Alley,Saint Petersburg,FL,,(333) 9514405
Chrissy Gatland,6425 Hayes Junction,Camden,NJ,,(558) 5340760
Sergei Hanselmann,689 Mallard Park,New York City,NY,5413,(566) 5006689
Pernell Munro,192 Basil Junction,Arvada,CO,55-002,(767) 8720213
Calhoun Dowsey,6952 Warner Center,El Paso,TX,,(452) 2510992
Eberto Gethin,3 Waubesa Lane,Trenton,NJ,,(881) 5938021
Konstantine Cornbell,7 Cody Trail,Troy,MI,,(864) 8033573
Harlie Twelves,0 Warbler Center,Norfolk,VA,,(530) 3523696
Law Myall,6 Elgar Park,Miami,FL,,(435) 3547912
Rabbi Greenslade,25999 Coolidge Avenue,Fort Lauderdale,FL,,(322) 2885532
Salaidh Oddy,52670 Gina Road,Charlotte,NC,76110,(682) 7749917
Gerri Burndred,36663 Lyons Terrace,Aurora,CO,234518,(360) 4348506
Vallie Faudrie,7 Butternut Alley,Frederick,MD,,(580) 7126297
Meir Bluett,3174 Tennessee Alley,New York City,NY,,(316) 9521486
Madlen Piscopo,97 Basil Road,Fresno,CA,85423-000,(547) 7786171
Humbert Belchamber,47061 Pawling Trail,Los Angeles,CA,11803,(323) 3564661
Valera Mannion,525 Carpenter Street,Albuquerque,NM,,(797) 7096473
Rania Richemont,6018 Stone Corner Crossing,Philadelphia,PA,10250,(873) 2278146
Georgiana Lehmann,7 Hudson Alley,Lansing,MI,,(213) 1342402
Pat Ewington,3286 Columbus Park,Cedar Rapids,IA,,(870) 3973324
Ad Gress,22411 Algoma Place,Greensboro,NC,20015,(520) 5828523
Wright Eilers,16 Shelley Avenue,Kansas City,MO,,(875) 1077249
Sybila Risbie,6 Park Meadow Park,Saint Petersburg,FL,97340-000,(593) 6432154
Duff Eastlake,68195 Rigney Center,Washington,DC,,(506) 8085380
Rex Hartop,76995 Old Shore Drive,Los Angeles,CA,,(689) 3135155
Doralyn Brea,1111 Truax Court,Monticello,MN,453524,(462) 6506937
Philly Tattersall,82672 Randy Pass,Madison,WI,90726,(490) 4050083
Letta Whilder,6 Boyd Center,Roanoke,VA,4025,(844) 9359124
Minor Oran,645 Burning Wood Lane,Lincoln,NE,2414,(511) 4335367
Cindi Carradice,2 Everett Parkway,Saint Petersburg,FL,70130,(784) 8582719
Morten Vail,7 Rusk Way,Springfield,IL,,(280) 9512218
Lanna Beynke,2912 American Road,Sioux Falls,SD,,(719) 6900151
Clea Signe,32219 Oak Junction,Littleton,CO,,(224) 4229982
Andy Genner,2804 Manitowish Hill,Charleston,WV,6131,(624) 3711755
Chet Culbert,0 Crownhardt Hill,San Diego,CA,7210,(131) 2544234
Annabela Cudd,8 Sheridan Avenue,New Orleans,LA,441 28,(339) 8266980
Jeremy Crowne,08 Sherman Place,Phoenix,AZ,22304 CEDEX,(791) 3604698
Bill Cuffin,0 Gina Way,Kansas City,MO,,(343) 4334577
Becki Braine,6001 Buhler Court,Huntsville,TX,682539,(443) 7817743
Angie Heffer,5 Londonderry Alley,Dallas,TX,10300,(777) 1226956
Nickey Sawden,92 Steensland Park,Seattle,WA,3055,(282) 8096307
Charin Ludye,3711 Stoughton Junction,Dallas,TX,6011,(846) 1428422
Noelyn Hansbury,88810 Delladonna Parkway,Portsmouth,NH,,(569) 9911173
Helli Kinnaird,6 Rusk Pass,Wilkes Barre,PA,5050-345,(567) 5012935
Winni Quinnelly,09 Carpenter Point,Kingsport,TN,,(951) 9012372
Audra Redgrave,0 Old Shore Terrace,Austin,TX,4835-449,(458) 4549956
Townsend Kiloh,4310 Northview Junction,Katy,TX,175040,(491) 6090822
Miner Starsmore,7 Esch Place,San Diego,CA,,(432) 8089375
Benita Sibthorp,405 Vidon Terrace,Silver Spring,MD,707037,(179) 2002762
Markos Hachette,2 Porter Circle,Pensacola,FL,,(832) 3814533
Moise Jacombs,4803 Ohio Way,Phoenix,AZ,,(355) 7476396
Xylina Spaducci,98240 Blue Bill Park Avenue,Reston,VA,,(278) 3368881
Arleta Keeton,26 Fairview Lane,Los Angeles,CA,,(778) 7701489
Royal Boribal,44 Gina Park,Tampa,FL,,(528) 3881901
Vivienne Kahen,7132 Elmside Junction,San Francisco,CA,,(178) 2876815
Tamera Rolse,8086 Hanover Road,Washington,DC,,(129) 3031797
Ronni Denes,92 Gale Crossing,Lake Worth,FL,,(200) 7412804
Eugen Gwynne,40551 Jay Court,Las Vegas,NV,,(549) 3054817
Jania Filippov,52 Shelley Street,Kansas City,MO,SLZ,(385) 1374996
Rhodia Headland,02 Elka Alley,Macon,GA,,(941) 6813916
Vito Le Lievre,59 Schlimgen Court,Pensacola,FL,,(189) 8164929
Babb Da Costa,6 Ohio Parkway,Rochester,NY,,(387) 1506398
Tad Forcer,2 Waywood Circle,San Angelo,TX,443543,(541) 5807523
Kynthia Oxteby,068 Hanover Lane,Newport News,VA,520-0804,(539) 4348251
Veronique Attenborrow,9018 Browning Pass,Saint Petersburg,FL,,(247) 3255062
Carree Dethloff,29 Anhalt Lane,San Diego,CA,,(435) 5389730
Gregg Bassilashvili,9 Magdeline Junction,Des Moines,IA,BD7,(982) 9722909
Chloris Garmey,3138 Montana Lane,Colorado Springs,CO,,(175) 5126926
Keely Anniwell,7 Talisman Junction,San Diego,CA,J2E,(143) 1086870
Burnard Vanderplas,6 Sunbrook Point,Phoenix,AZ,,(450) 9820113
Enid Beddoe,016 Debra Plaza,Honolulu,HI,,(567) 8631837
Terri Newcomen,12189 Morrow Lane,Columbia,SC,,(421) 8303187
Marlon Philippson,08 Summit Alley,Carlsbad,CA,,(328) 9395131
Cristen Lindeboom,64 Blackbird Plaza,Washington,DC,29404 CEDEX,(257) 9252985
Lewes Howey,1968 Mallory Park,Canton,OH,36670,(251) 6370488
Sidonnie Tackett,49139 Oakridge Point,Fort Lauderdale,FL,5420,(427) 8016199
Nicky Hellwing,7544 Cambridge Way,Memphis,TN,B2E,(298) 7378475
Eli Spur,435 Homewood Plaza,Evansville,IN,243240,(797) 6240404
Sherman Saffer,370 Esker Center,San Francisco,CA,,(129) 8331751
Riley Burhouse,13131 Erie Drive,San Antonio,TX,10155,(646) 8774945
Leona Sturdey,2204 Oxford Court,New York City,NY,,(354) 5136236
Tony Kliment,3 Vermont Pass,Virginia Beach,VA,3600-584,(573) 9833012
Farrell Fesby,5 Superior Junction,Anchorage,AK,,(272) 7621901
Giovanni Fessier,8 Waxwing Street,Youngstown,OH,,(623) 2876332
Lanie Edgeler,8 Becker Lane,Phoenix,AZ,20010,(582) 8566227
Garrick Enochsson,3 Valley Edge Parkway,Chesapeake,VA,6549,(344) 3790238
Dex Demageard,01 Basil Place,El Paso,TX,,(944) 2150317
Trish Shepherdson,9 Kensington Center,San Jose,CA,679-1212,(686) 1685074
Maryanna Sieb,61 Ilene Avenue,Columbia,SC,T1G,(332) 9671384
Darcee Dahlbom,31 Anderson Road,Atlanta,GA,5464,(816) 7068318
Willard Killingback,0093 3rd Way,Dallas,TX,,(121) 3080514
Smith Kopecka,53881 Duke Center,Evansville,IN,,(328) 4311096
Michaella Dionisii,59579 Hagan Circle,Mobile,AL,,(698) 8057910
Tiffani Evitt,7 Dryden Way,Birmingham,AL,,(834) 9696246
Robinson Rugge,571 Kings Parkway,Young America,MN,,(717) 3783031
Lari Budget,1690 Oakridge Way,Bryan,TX,,(789) 8809258
Moina Andryunin,4 Hoepker Hill,Orange,CA,,(920) 6112171
Filip Espinoy,7 Judy Parkway,Washington,DC,,(715) 9268921
Brittni Dauncey,111 Hintze Trail,Charleston,WV,V5Y,(190) 1206104
Jeff Schoenfisch,3953 Calypso Alley,New York City,NY,,(467) 5755834
Appolonia Goudard,18 Summer Ridge Lane,Providence,RI,,(995) 3224233
Shela Spincks,0009 Heath Crossing,Montpelier,VT,990-2374,(580) 2420837
Rory Biskupiak,47331 Scoville Plaza,Irving,TX,44-348,(895) 9319689
Jammal Ranscombe,810 Cody Plaza,Canton,OH,,(214) 5316258
Ilaire Cheverell,1 8th Drive,Louisville,KY,B2E,(855) 3425190
Vance Viner,38239 Hallows Parkway,Mc Keesport,PA,2430-620,(356) 8395074
Inge Guillerman,4574 Veith Crossing,Lake Worth,FL,07-205,(438) 8678685
Benny Blackster,9710 Oriole Avenue,Rochester,NY,1260,(373) 6944830
Hildegarde Erbain,661 Ruskin Parkway,Spring,TX,,(985) 9768873
Loella Fleg,1 5th Pass,Cincinnati,OH,5211,(859) 7144990
Basilio Jonson,781 Westport Road,San Antonio,TX,,(695) 5250787
Haydon Wintle,44 Evergreen Street,Tyler,TX,,(580) 8340416
Florencia Rioch,5714 Porter Court,Washington,DC,5139,(239) 7689289
Hildegarde Haycox,5098 Bashford Pass,Charleston,WV,62-602,(183) 2084952
Andie Sanbrook,65232 Waxwing Pass,Memphis,TN,,(496) 9564310
Fredrick Foldes,71208 Tony Street,New York City,NY,84504 CEDEX,(811) 4264917
Ernesta Lockhurst,4 Anthes Lane,Jacksonville,FL,,(491) 6020104
Nathaniel Tethacot,9 Charing Cross Crossing,Washington,DC,1607,(520) 1248755
Myrna Brannon,3 Old Gate Park,Laredo,TX,6666,(227) 8754292
Remy Allwright,540 Manufacturers Court,Minneapolis,MN,,(976) 9472432
Ezra Mennear,297 Sunnyside Lane,Oklahoma City,OK,68134,(402) 4451285
Reade Brecher,86210 Merry Circle,Alexandria,VA,,(386) 7084223
Sheena Churchyard,994 Loftsgordon Hill,San Angelo,TX,93270,(516) 3930739
Steffane Pidgley,157 Derek Trail,Orange,CA,J5K,(232) 1975721
Harley Haffner,45 Fair Oaks Center,Jamaica,NY,,(998) 7211624
Peyton Girardeau,2 Oriole Park,Lafayette,LA,,(581) 5740503
Carol-jean McKinnell,9246 Vera Street,New Orleans,LA,,(797) 7766055
Waldemar Dow,67 Crescent Oaks Parkway,Waterbury,CT,368164,(745) 3421433
Nil Kort,8 Starling Drive,Albuquerque,NM,,(562) 6837449
Virgilio Larmuth,43228 Old Gate Pass,Largo,FL,3303,(321) 1565699
Glynn Dumsday,46 Tennyson Park,Chattanooga,TN,4713,(707) 4714032
Sadye Soan,6170 Lyons Hill,Santa Monica,CA,,(543) 6913650
Federico Bandiera,3 Tony Court,Scranton,PA,,(606) 4813987
Mady Vakhrushev,6 Lyons Center,Fort Worth,TX,,(593) 4781419
Lottie Van Velde,3060 Bay Center,Marietta,GA,615 95,(484) 8581202
Hanni Vaggers,33811 Melody Junction,Houston,TX,9600-015,(159) 2470337
Christie Hartle,301 Mitchell Avenue,Tempe,AZ,400 04,(754) 8859763
Aindrea Clemente,7 Elka Crossing,Dallas,TX,,(749) 9474602
Lanie Mc Caughan,63 Oakridge Court,Chicago,IL,,(213) 9958319
Clareta Maden,77511 Brentwood Avenue,Syracuse,NY,6214,(697) 8086834
Cordy Cuddy,1 Dahle Center,Mobile,AL,,(818) 5067126
Lauritz Skitt,5561 Mendota Alley,Oklahoma City,OK,,(965) 9742168
Sephira Schanke,965 Shasta Way,Washington,DC,,(943) 1025504
Haily Nestoruk,15 Green Ridge Circle,Houston,TX,11808,(886) 8060322
Issiah O'Nowlan,25 Morningstar Avenue,Yakima,WA,663-8247,(449) 2940510
Charmine Waldock,0155 Banding Court,Santa Barbara,CA,23605,(757) 6261014
Dougy Duffit,7 Anniversary Junction,Staten Island,NY,4430,(582) 3323935
Pavla Skeemer,50844 Moland Pass,Orange,CA,,(849) 1486689
Richmond Etchells,9039 Pennsylvania Point,Paterson,NJ,9201,(759) 6341984
Jewelle Winstone,3891 Kropf Pass,Corona,CA,08-130,(113) 3812927
Darice Pawelski,2 Grasskamp Terrace,Tucson,AZ,140317,(393) 2023041
Blakelee Cobb,1 Huxley Crossing,Ventura,CA,,(558) 2845242
Chiquita Gravet,80 Sherman Park,Seattle,WA,,(124) 5771772
Ashton Whitesel,038 Marcy Lane,Tulsa,OK,,(835) 1573283
Saba Antoniewski,4552 Westerfield Junction,Amarillo,TX,,(962) 8427615
Marcella Tregale,26016 Riverside Drive,San Antonio,TX,,(883) 1447171
Emmalynne Silversmid,60697 Dayton Lane,Lake Charles,LA,,(354) 3444994
Mordecai Pinnocke,10135 Calypso Lane,Washington,DC,,(731) 8985802
Maybelle Jurczyk,3 Clarendon Circle,San Jose,CA,,(520) 7503144
Troy Sein,63588 South Junction,Sacramento,CA,,(495) 6769936
Beauregard Shiers,101 Stephen Way,Springfield,OH,3802,(121) 3487445
Dar Mapam,214 Coolidge Street,Honolulu,HI,,(386) 7178479
Smith Manuele,45 New Castle Alley,Largo,FL,2446,(587) 6157830
Cyndie Nannetti,806 Dottie Pass,Springfield,IL,,(430) 1546172
Rivalee Redolfi,48121 Judy Circle,Tyler,TX,,(578) 7716882
Chris Blenkensop,57 Vernon Alley,Richmond,VA,,(692) 9244026
Helenka Paddison,4427 American Ash Avenue,Philadelphia,PA,77-304,(309) 5669261
Olivie Gatteridge,11 Dwight Trail,Milwaukee,WI,,(536) 6183178
Holli Wessel,36255 Melrose Plaza,Bellevue,WA,,(223) 5605068
Aime Peregrine,7 Reinke Terrace,Silver Spring,MD,37605,(423) 1428708
Clarinda Gibbett,9 Summer Ridge Drive,Louisville,KY,,(775) 5710885
Luce Lammas,17 Emmet Pass,Billings,MT,,(455) 4770399
Patricia Peacey,3766 Atwood Court,Conroe,TX,664 43,(714) 2755233
Kevon Simone,37393 Ramsey Place,Portland,OR,,(831) 8116237
Anabel Cornhill,65 Russell Plaza,Washington,DC,,(216) 5513879
Darleen Warsop,754 Bluejay Alley,Austin,TX,GDJ,(405) 5461278
Chester Jecks,43723 Gulseth Pass,Silver Spring,MD,50733,(405) 4924303
Vonnie Borchardt,9 Portage Court,Peoria,IL,,(538) 7653678
Elroy Gabbatt,94 Gina Plaza,Memphis,TN,34550,(749) 4367298
Pren Van de Castele,489 Eastwood Hill,Gainesville,FL,,(310) 9991203
Humfrey Phlipon,1 Old Gate Junction,Arlington,TX,,(735) 9961243
Camila Potteril,30 Oak Drive,Washington,DC,,(590) 7044986
Yale Shanahan,17 Old Shore Pass,White Plains,NY,G8V,(542) 2770866
Saxon Yannoni,5384 Hanover Center,Los Angeles,CA,,(745) 2045695
Kippar Riglar,2255 Pennsylvania Circle,Minneapolis,MN,,(912) 8140517
Glory Ramshay,8 Pennsylvania Pass,Aurora,CO,L8J,(743) 6894116
Keir Grishakov,44367 Bunting Circle,Miami,FL,52201,(903) 2177497
Elyse Parkins,766 Sunbrook Trail,Huntington,WV,71122,(117) 5729124
Eleonore Nial,0 Talisman Crossing,Washington,DC,,(847) 8943483
Laurel Late,29795 Crescent Oaks Trail,Nashville,TN,92105,(728) 5060540
Georgiana Stuckow,22 Mockingbird Park,Atlanta,GA,,(417) 8865531
Issie Mosby,3 Summit Hill,Buffalo,NY,357813,(810) 6488622
Clem Corben,77682 Doe Crossing Pass,Sterling,VA,,(837) 8545041
Savina MacGiolla Pheadair,7 Debs Hill,Milwaukee,WI,,(604) 9778361
Bail MacCurtain,746 Morningstar Avenue,Erie,PA,44706 CEDEX,(748) 5490512
Hewe Holbarrow,67 Beilfuss Place,Atlanta,GA,,(785) 2818845
Carlye Duignan,28 Mandrake Crossing,Columbus,OH,,(369) 3244079
Ransell Davidovic,95 Dovetail Drive,Brooklyn,NY,542 87,(324) 6775104
Malinda Sapsed,0551 Scofield Avenue,Seattle,WA,668150,(731) 1545546
Tybie Antonoczyk,48 West Point,Chicago,IL,,(108) 1317215
Gonzales Kehri,1 Stuart Place,Philadelphia,PA,,(996) 6432531
Lammond Grzeszczyk,51 Ruskin Road,Charlotte,NC,,(736) 9680710
Gustave Dimberline,62 Chive Terrace,Arlington,VA,2231,(273) 4658126
Clerc Naire,313 Tennyson Place,Raleigh,NC,,(950) 2137854
Kaleb Cowland,8 Carberry Street,Anchorage,AK,,(413) 9514123
Creighton Grinval,40 Dorton Hill,Atlanta,GA,55400-000,(169) 8678533
Chantal Dyett,9 Fremont Place,Largo,FL,,(275) 9407922
Stearn Simo,2852 Maryland Court,Waltham,MA,,(154) 8321629
Christoph Hilldrop,8623 Dwight Circle,Evansville,IN,,(116) 4196719
Joleen Myall,8953 Lien Avenue,Torrance,CA,,(511) 6877391
Alida Mount,765 Ruskin Pass,Philadelphia,PA,,(162) 8089502
Belvia Dwight,45074 Aberg Alley,Aurora,IL,309621,(371) 8489040
Goldina Estoile,526 Macpherson Lane,Nashville,TN,,(324) 6267331
Leticia O'Breen,318 Fallview Crossing,Arlington,VA,,(979) 8067186
Eve Saenz,05423 Goodland Terrace,Sacramento,CA,P7L,(912) 6917584
Martie Grouvel,071 Towne Point,Topeka,KS,,(809) 1254428
Gabrila Pieche,01 Iowa Drive,Murfreesboro,TN,,(700) 8533892
Germain Sevitt,1 New Castle Center,Tampa,FL,618742,(341) 2704132
Ganny Ramelet,32270 Beilfuss Hill,Minneapolis,MN,,(720) 5322575
Mata Haet,04784 Laurel Hill,Englewood,CO,,(932) 3147389
Christa Hazeldean,7760 Mifflin Circle,Denver,CO,5090-105,(353) 3399337
Kerby Kienzle,39171 Reinke Trail,Indianapolis,IN,5071,(511) 5211027
Kinny Roscam,0106 Vernon Avenue,Lake Worth,FL,,(689) 4138108
Lavinia Hurtado,1914 Raven Park,Aurora,CO,95185-000,(782) 5654256
Judi Ochiltree,9 Paget Parkway,Portland,OR,,(281) 5756807
Rand Bakhrushin,55438 Duke Point,Birmingham,AL,,(912) 9458634
Jermayne Roberts,801 Grover Road,Portland,OR,,(989) 3961936
Heindrick Ivanyushkin,5 Northwestern Plaza,Salt Lake City,UT,,(310) 8785900
Rafaello Chadbourne,8716 Graceland Crossing,Carlsbad,CA,,(661) 4373399
Silvanus Attwoul,90 Kings Lane,Brooklyn,NY,,(142) 5777398
Brion Fowley,4 Sheridan Lane,Provo,UT,,(478) 5494400
Aubree Scrauniage,7 Main Terrace,Hartford,CT,14780-000,(515) 4988555
Bogey Beebee,494 Jenifer Park,Houston,TX,,(798) 2496624
Drew Spacie,31848 Eastlawn Crossing,Los Angeles,CA,3080-520,(483) 6647034
Flin Shellard,19 Fieldstone Place,San Antonio,TX,45220,(866) 8055824
Alena Boc,9 Hanover Point,San Jose,CA,5046,(236) 9365490
Roobbie Ansill,32 Melody Street,Wichita,KS,7875-354,(521) 4240667
Carolan Roloff,0 Continental Pass,Kansas City,MO,4624,(333) 7098463
Kendrick Baumann,58 Harper Pass,Washington,DC,,(122) 8687780
Iver Habbon,7458 Shopko Avenue,Lancaster,PA,993-0073,(521) 7640540
Robbie Pleuman,0335 Chive Trail,Pittsburgh,PA,8114,(790) 7759077
Tammie Wheelwright,1684 La Follette Court,Memphis,TN,52150,(625) 5176883
Nicola Attkins,893 Village Alley,Huntington,WV,88330-000,(507) 2815577
Nady Pritchard,3023 Green Ridge Drive,Memphis,TN,,(133) 9331836
Abby Denington,82278 Scofield Junction,Saint Louis,MO,,(535) 3277186
Aylmer Aylmer,87204 Shopko Pass,Austin,TX,9408,(714) 2255102
Anastassia Holdforth,00 Florence Avenue,Dayton,OH,,(378) 3341982
Rowena Lewton,7 Esker Circle,Des Moines,IA,,(176) 6418738
Brien Rosewarne,4 Buell Road,Fayetteville,NC,11-042,(648) 5029831
Ty Kiddell,3141 Anzinger Trail,Roanoke,VA,7052,(136) 5313899
Alla Shippey,7381 Grim Trail,Houston,TX,2810,(976) 4980230
Luther Gianni,6397 Hollow Ridge Road,Miami,FL,8357,(221) 8048451
Mac Michell,51656 Jana Center,Reno,NV,,(398) 1171926
Brier Heeney,2022 Johnson Alley,Saint Paul,MN,73201,(966) 8082273
Sly Kelwick,00 Russell Court,Cleveland,OH,,(661) 1140882
Obadias Bladder,2173 Norway Maple Crossing,Plano,TX,,(434) 2618371
Jarred Roebuck,1 Grim Avenue,Oklahoma City,OK,69400-000,(101) 3949647
Sibella Edlington,410 Sugar Road,Oakland,CA,38204,(905) 9707514
Edward Boswood,7505 Buena Vista Park,San Francisco,CA,38180-000,(979) 9412225
Kaile Berrick,48994 6th Plaza,Mesa,AZ,98300-000,(290) 1106163
Lorna Grubbe,4 Spohn Plaza,Los Angeles,CA,35033 CEDEX 9,(933) 9701669
Agna Graeme,26979 Bluejay Avenue,Colorado Springs,CO,,(794) 2559088
Charlot Licence,5586 Loftsgordon Terrace,Reno,NV,59784 CEDEX 9,(477) 4240263
Anatola Leeves,47945 Boyd Point,Flint,MI,,(284) 6192502
Anselm Olivo,0 Butternut Crossing,Boca Raton,FL,,(949) 7793320
Ashton Caramuscia,70 Logan Lane,Edmond,OK,95680-000,(802) 1165075
Hinda Calow,53 Loeprich Hill,Philadelphia,PA,1224,(564) 1120854
Anica Wetherhead,36110 Meadow Valley Hill,Norfolk,VA,361424,(743) 5173543
Drusilla Lessmare,2 High Crossing Plaza,Wichita,KS,250 90,(496) 8398465
Upton Andren,16894 Northwestern Place,Cincinnati,OH,,(100) 2570895
Brnaby Tulleth,5 Crest Line Plaza,Winston Salem,NC,,(104) 6883859
Ericha Roderham,96 Warner Alley,Littleton,CO,70760,(145) 7135301
Brittan Ridhole,76 Fallview Terrace,Salt Lake City,UT,13298 CEDEX 20,(277) 6729470
Gavin Chidler,8351 Stoughton Parkway,Fort Lauderdale,FL,,(392) 9541922
Bernardina Sandeson,53157 5th Plaza,Milwaukee,WI,4485-296,(822) 2104737
Torry Vaszoly,4 Magdeline Avenue,New York City,NY,,(797) 3339236
Millard Forri,903 Kropf Hill,Houston,TX,,(295) 8923658
Alf Soughton,7140 Oriole Lane,Phoenix,AZ,2765-317,(127) 1913674
Dorie Apfel,6135 Bunting Street,Denver,CO,,(590) 3491820
Lind Cazin,572 Granby Place,Atlanta,GA,T9M,(124) 6021105
Sydney Passingham,52674 Lien Pass,Indianapolis,IN,,(672) 5084973
Darcy Heinonen,0 Transport Drive,Hampton,VA,97-306,(925) 4720909
Barton Spencelayh,0416 Glacier Hill Center,Fort Wayne,IN,,(465) 8461364
Olia Southern,2770 Lukken Terrace,Jefferson City,MO,141662,(439) 2462358
Sallee Najara,4385 Monterey Avenue,Des Moines,IA,,(570) 3997241
Milly Footitt,6180 Eastlawn Street,El Paso,TX,663740,(483) 8319269
Kipper Bossel,17 Rutledge Terrace,Los Angeles,CA,,(438) 1836297
Cal Chopping,321 Barby Avenue,Anaheim,CA,46025,(801) 7309354
Madonna Gringley,3305 Havey Lane,Houston,TX,1227,(418) 7814963
Carleen Scothern,1 Declaration Crossing,Washington,DC,16015 CEDEX,(150) 4644695
Giffard Basire,79 Lillian Plaza,San Mateo,CA,4905-014,(148) 2610033
Manfred Oxbie,8761 Brown Center,Pasadena,CA,,(627) 5040886
Dennie McIlriach,0102 Dapin Drive,Garland,TX,36-072,(293) 8783313
Christy Goodwill,0346 Hovde Crossing,Oakland,CA,16400-000,(113) 5590474
Theda Nickols,29 Carberry Street,El Paso,TX,,(341) 3460117
Pierson Vertigan,40 Carpenter Circle,El Paso,TX,4024,(254) 3609873
Butch Ferries,49 Lerdahl Road,San Francisco,CA,23460,(306) 4938410
Shellie Etherton,2856 Fisk Hill,Los Angeles,CA,,(489) 1172163
Leupold Mann,76058 Goodland Point,Fort Worth,TX,,(357) 1226339
Meridel Yendle,77 Hauk Park,San Diego,CA,,(286) 8695349
Verge Petrelli,90121 Orin Trail,Knoxville,TN,37215,(615) 9567862
Inglis Spillane,2 Scoville Avenue,El Paso,TX,,(710) 7433895
Elwin Yeabsley,22606 Union Drive,Toledo,OH,,(162) 2566640
Auguste Minithorpe,807 Beilfuss Drive,Trenton,NJ,06-302,(541) 6475659
Dalli Edmands,7 Ohio Place,Pasadena,TX,,(686) 7721152
Georgianne Phidgin,684 Eastlawn Circle,New Orleans,LA,,(258) 4420957
Franchot Southard,042 Brickson Park Circle,Louisville,KY,,(535) 6314636
Miof mela Trumper,890 Summerview Crossing,Dallas,TX,,(230) 5291359
Peter Methley,248 Bluejay Lane,Norcross,GA,8664,(567) 3738956
Victoir Simmers,80008 Fordem Terrace,Katy,TX,,(829) 5139855
Maurizia Roux,54851 Nancy Center,Omaha,NE,,(733) 2693400
Oralee Coryndon,61 Fair Oaks Alley,Lincoln,NE,,(397) 9633610
 Du Fray,558 Katie Terrace,Youngstown,OH,,(362) 8466866
Cheri Vatini,77 Becker Lane,Salt Lake City,UT,,(381) 6834974
Alicia Haberfield,77 Grasskamp Street,Round Rock,TX,,(350) 2866737
Derby Hayne,22 Mallory Alley,El Paso,TX,17-132,(171) 2294019
Lawry McCathy,0939 Barby Circle,Los Angeles,CA,,(675) 9971016
Sherri Le Grove,65 Ludington Trail,Washington,DC,,(434) 6306481
Christabella Milkin,8 American Junction,Appleton,WI,1106,(601) 6158490
Leora Tattershall,83999 Dwight Circle,Houston,TX,32-851,(632) 7778717
Devland Gerraty,255 Elmside Center,Newark,NJ,D6W,(806) 5229937
Tirrell Duff,603 Canary Trail,Montgomery,AL,162510,(192) 9389628
Vite Seebright,0196 Pine View Court,Topeka,KS,,(648) 7409331
Shaun Osmon,945 Merchant Junction,Long Beach,CA,,(959) 9482397
Darin Buzek,5274 Fairview Junction,Madison,WI,,(780) 8004509
Stefan Wagg,9220 Russell Court,Nashville,TN,70187,(504) 7520379
Eloisa Gillbe,67 Eliot Court,Raleigh,NC,,(435) 4975435
Liza Simukov,1 Artisan Drive,London,KY,,(636) 1321364
Price Braunstein,88 Mendota Trail,Oakland,CA,,(775) 1677930
Benita Schaffler,79 Anzinger Way,Austin,TX,,(741) 7689862
Kelby Peverell,530 Barnett Junction,Washington,DC,45980-000,(715) 2933295
Alyosha Lathleiff,5512 Sheridan Plaza,Daytona Beach,FL,,(882) 2088482
Hurley Kitlee,14 Bashford Point,Nashville,TN,RG20,(570) 6240605
Shel Mathon,89187 Fulton Park,Kansas City,MO,,(394) 2726257
Analiese Chettle,165 1st Lane,New York City,NY,,(989) 4488268
Rickey Basnett,95165 Commercial Point,Harrisburg,PA,356501,(479) 8055644
Eolande Villar,603 Washington Hill,Augusta,GA,,(834) 4656168
Lillian Regardsoe,1457 Surrey Alley,Greensboro,NC,5829,(841) 9612744
Jasmine Ivanshintsev,5 Park Meadow Trail,El Paso,TX,,(421) 4933802
Sonny Mizen,20 Miller Circle,Dallas,TX,188502,(959) 7384336
Damon Bedder,8505 Anhalt Parkway,Birmingham,AL,,(444) 3633974
Prudy Mogey,97 Jenna Junction,Shawnee Mission,KS,8601,(266) 8458511
Lyndsey Bollin,85664 Schmedeman Pass,Washington,DC,,(175) 2866750
Corine Abdee,67 Iowa Lane,Orlando,FL,1004,(105) 2118075
Gregor Kender,8439 Village Green Pass,Roanoke,VA,,(607) 1126220
Roderick Busk,056 Darwin Center,Denver,CO,30430,(414) 1657021
Brittani Wybrew,1704 Armistice Avenue,Spartanburg,SC,7541,(344) 7418791
Teressa Ingilson,47952 Corben Plaza,Pasadena,CA,,(389) 4202797
Winnah Baskerfield,0 Shopko Plaza,Washington,DC,,(386) 7240620
Fransisco Caldicot,25833 Upham Way,Evansville,IN,,(481) 4829233
Meta Kingsnode,1 Nevada Terrace,Harrisburg,PA,,(369) 7942409
Sebastiano Merrigan,283 Homewood Way,Buffalo,NY,,(714) 4649475
Lorens Warlowe,6797 Golden Leaf Court,San Antonio,TX,9315,(415) 9090029
Dal Rainford,383 Loeprich Court,Austin,TX,1234,(554) 1677721
Natalina Dowthwaite,80432 Independence Pass,Houston,TX,,(653) 3713857
Janeczka Miebes,1645 Acker Alley,Phoenix,AZ,,(980) 5407034
Emmy Sallowaye,37028 Melby Road,Norfolk,VA,601231,(965) 5178917
Beatrix Clopton,26725 Brentwood Circle,Saint Paul,MN,,(304) 8228659
Alla MacKerley,6 Lerdahl Drive,Apache Junction,AZ,273 71,(428) 1253866
Moise Amorine,9 East Road,Los Angeles,CA,53291,(733) 2002400
Henriette Chamberlen,42 Chive Crossing,Garden Grove,CA,4317,(965) 4860828
Wallie Ferrandez,6149 Dennis Park,Washington,DC,32-840,(268) 5926241
Anne-marie Oty,16 East Pass,Atlanta,GA,94414 CEDEX,(188) 7461327
Chas Bossel,0564 Roth Trail,New York City,NY,8113,(215) 8612899
Hunter Gascoine,6117 Doe Crossing Way,Madison,WI,93916,(609) 9518896
Meta Ainsbury,6 American Ash Way,Omaha,NE,,(927) 1523863
Sherie Costelloe,90623 Macpherson Hill,Midland,TX,,(209) 5126236
Nikos Lemoir,05 Westerfield Trail,Wichita,KS,925-0563,(266) 4926093
Joleen Whyatt,99 Oak Valley Plaza,Salt Lake City,UT,,(775) 3229094
Gisele Brassington,49 Maple Crossing,Omaha,NE,,(804) 6925714
Konstantin Overington,430 Thackeray Hill,Delray Beach,FL,1033,(326) 6913116
Afton Jachtym,4069 Stuart Road,Minneapolis,MN,38126,(901) 8693463
Mariette Meriton,6994 Northfield Plaza,Mesa,AZ,,(922) 1951177
Wynny Mazin,238 Toban Circle,Tacoma,WA,,(112) 4408375
Olag Syratt,538 Scott Trail,Inglewood,CA,,(933) 1717875
Star Prandin,892 Saint Paul Lane,Oklahoma City,OK,56000-000,(918) 3257234
Dietrich Brockington,2 Fairview Plaza,Punta Gorda,FL,,(192) 7046281
Urbanus Moyse,9060 Graceland Street,Memphis,TN,175007,(267) 1436695
Samantha Wildman,73 Artisan Alley,Silver Spring,MD,335 24,(323) 4028742
Cammi Littleover,8 Grim Court,Chicago,IL,36200-000,(449) 9407013
Lizbeth Reddish,6053 Susan Alley,Raleigh,NC,,(508) 4052164
Deane Shafe,870 Meadow Vale Trail,Detroit,MI,,(533) 2545467
Heindrick Hebditch,47 Service Alley,Milwaukee,WI,,(670) 2001846
Joelly Stollwerck,59 Express Street,Atlanta,GA,7405,(828) 4067322
Dorolice Hansmann,8082 Esker Pass,San Antonio,TX,,(537) 5896251
Corliss Hamflett,480 Ramsey Plaza,Alexandria,LA,303666,(381) 9208622
Nita Bullion,22588 Bay Hill,San Jose,CA,34194 CEDEX 5,(508) 4473732
Lida Amys,47 Mcguire Avenue,Port Saint Lucie,FL,,(390) 7768124
Karlotta Holligan,16949 Main Road,Louisville,KY,91024 CEDEX,(903) 1308875
Christean Feben,235 Artisan Drive,Portland,OR,301723,(524) 9798768
Bernelle Eccleston,81094 Judy Parkway,Lawrenceville,GA,,(405) 8599844
Janice Trobey,4750 Moulton Drive,Midland,MI,49000-000,(768) 7540839
Anestassia Alliott,45 Birchwood Street,Jamaica,NY,399778,(714) 1766120
Mathe Ivins,7883 Bashford Avenue,Knoxville,TN,663140,(797) 3318351
Virge Gerrard,3 Hovde Lane,Humble,TX,,(277) 9542044
Rebeka Desbrow,084 Basil Plaza,Washington,DC,,(529) 7248234
Joyce Tamblingson,58363 Shoshone Drive,Jacksonville,FL,,(611) 1433005
Ethyl O'Hanlon,990 Packers Pass,Dallas,TX,,(307) 2835402
Nancee Lopes,49 Eagan Lane,Jamaica,NY,6200,(543) 4062944
Ailey Ivanin,10 Dapin Point,Washington,DC,,(704) 6434467
Lenore Livoir,777 Coolidge Circle,Athens,GA,88160-000,(207) 3629890
Pauli Villaret,4 Forster Hill,Miami,FL,,(821) 3063210
Bonny Feek,99947 Arkansas Avenue,Tallahassee,FL,,(737) 8360616
Cassandry Annett,145 Fulton Lane,Albuquerque,NM,,(208) 8886122
Bobby Lawee,44539 Northland Plaza,Katy,TX,301054,(664) 7260324
Kat Rowdell,1420 Hooker Hill,Houston,TX,6165,(119) 4227124
Wynny Hubner,631 Dennis Street,New York City,NY,,(760) 3121315
Hildagard Escalante,1 Dwight Junction,Fort Wayne,IN,8422,(433) 8910018
Freddie Hogbourne,52 Melody Plaza,Greeley,CO,2087,(323) 8188937
Jaquelin Hatt,4 Pine View Drive,Scottsdale,AZ,,(368) 5221645
Oralla Wooffitt,34298 Hayes Drive,Bellevue,WA,,(264) 1440983
Felicdad Maddigan,631 Autumn Leaf Park,Provo,UT,,(161) 1514750
Alia ,2 Declaration Circle,Huntington,WV,89540-000,(152) 8517466
Bevvy McClure,4625 Talmadge Hill,Chattanooga,TN,4119,(477) 1058507
Jan Germain,9101 Del Sol Hill,Fort Worth,TX,389-0811,(897) 7820828
Kaiser Edwins,6 Cordelia Hill,Oklahoma City,OK,,(314) 1914296
Liva Cranch,96 Butternut Court,Long Beach,CA,,(981) 3417491
Davie Dunsmuir,733 Esch Hill,Murfreesboro,TN,1151,(114) 8224714
Elmo Mainwaring,772 Loomis Crossing,Houston,TX,21-060,(436) 9212963
Carline Kohrding,9579 South Way,Memphis,TN,1621,(173) 1011183
Andreas Domel,202 Division Avenue,Oceanside,CA,,(414) 9322720
Dianna Storrs,89176 Pond Alley,Salt Lake City,UT,,(788) 4410251
Essie Andreacci,35 Vermont Plaza,Modesto,CA,,(481) 1772291
Marj Lackie,330 Rigney Drive,San Diego,CA,,(390) 6007579
Zonda Du Fray,41256 Ryan Parkway,New Orleans,LA,,(332) 4666533
Carey Jeremaes,7425 Tony Drive,Wichita,KS,112 75,(848) 1072437
Bendix Jakaway,82960 Farmco Lane,San Francisco,CA,,(353) 7955736
Silvanus Toogood,390 Summerview Place,Salt Lake City,UT,,(995) 4035937
Torrin Wivell,8 Butterfield Point,Colorado Springs,CO,,(264) 3815367
Dennet Gooderick,56 Sage Crossing,Jamaica,NY,62021,(118) 3067551
Ada Cholerton,809 Ilene Drive,Marietta,GA,G3Z,(141) 1578021
Florida Lenden,99 Maple Wood Terrace,Modesto,CA,,(792) 4277434
Samuele Hannen,37572 Anniversary Avenue,Fargo,ND,,(727) 5579295
Madelaine Ashdown,14127 Twin Pines Alley,Nashville,TN,05-850,(329) 4222486
Lacie Scholling,5 Havey Plaza,Idaho Falls,ID,A86,(976) 5212211
Karlotte Sketch,91589 Fulton Crossing,Chicago,IL,,(739) 8137411
Udell Shark,6548 Northport Avenue,Tucson,AZ,,(477) 7305452
Richy McEwan,0678 Cardinal Junction,Austin,TX,,(834) 8346767
Sylas Lanyon,4 Ryan Plaza,Oklahoma City,OK,49000,(274) 2547260
Miquela Squier,25 Randy Parkway,Meridian,MS,,(916) 8960709
Andria Deener,842 Knutson Crossing,San Jose,CA,32251,(241) 6174940
Roxine Iapico,04475 Prairieview Park,Huntsville,AL,,(915) 5504622
Madison Torpie,9292 Northport Center,Hampton,VA,,(752) 9240641
Konstanze Richarz,65149 Michigan Junction,El Paso,TX,,(784) 4917523
Con MacNess,5373 Sunbrook Drive,Albuquerque,NM,22200,(739) 6952659
Morley Furmedge,618 Maryland Circle,Washington,DC,,(998) 9720697
Dael Vondrys,113 Shoshone Terrace,Greenville,NULL,,(202) 9863783
Tina MacCambridge,7 Columbus Point,Stamford,CT,,(277) 8360955
Zebadiah Hazael,66472 Melody Park,Seattle,WA,,(524) 8138325
Ignazio Lowes,4 Schurz Street,Seattle,WA,,(279) 9073789
Fin Shoutt,61205 Burrows Road,Bronx,NY,,(901) 7640405
Normand Ind,3865 Florence Circle,Lake Charles,LA,16135,(675) 9831318
Claire Tillerton,410 Boyd Plaza,Katy,TX,7209,(659) 6343535
Francois Chesney,71831 Tony Terrace,Jackson,MS,,(591) 6306302
Xena Heineking,2 Clyde Gallagher Road,Miami,FL,,(509) 7067519
Hillary Haysom,5 Spenser Hill,Bronx,NY,63870-000,(630) 2966898
Selina Flint,6395 Heath Point,Colorado Springs,CO,,(588) 2015998
Lolly Tupman,98049 Ridge Oak Alley,Annapolis,MD,249087,(131) 6478398
Lurleen Mussolini,90 Schlimgen Parkway,Van Nuys,CA,,(433) 4813630
Ryon Biasioni,4 Michigan Point,Louisville,KY,,(686) 9578926
Joellyn Wyeld,9 2nd Place,Dallas,TX,,(764) 5312976
Kassandra Choffin,7 Birchwood Court,Columbia,MO,363604,(722) 1107489
Bobbie Pasquale,9873 Westridge Park,Seattle,WA,,(231) 2831182
Augustine Hrachovec,76554 Farmco Court,Tyler,TX,,(492) 7791179
Gladys Skydall,7 Hanson Terrace,Springfield,MA,,(734) 4924417
Welbie Leeb,614 Barby Crossing,Aiken,SC,,(982) 9917246
Loydie Applin,39280 Mayfield Parkway,New York City,NY,659500,(968) 7224416
Melisse Raylton,3 Dakota Junction,Arvada,CO,,(552) 2109398
Linette Boydle,74 American Parkway,Billings,MT,11900-000,(338) 9907084
Lexine Galey,9 Sauthoff Parkway,Sacramento,CA,,(901) 3647685
Sherlock Lopes,18829 Bowman Road,Philadelphia,PA,6555,(316) 5533538
Kellsie Leupold,737 Debra Trail,Honolulu,HI,05-824,(335) 4202633
Ellwood Blucher,73 Esch Way,Van Nuys,CA,21120,(695) 3949653
Kimberlyn Adan,3611 Di Loreto Trail,Milwaukee,WI,,(275) 9459048
Idelle Howship,8027 Fallview Pass,Boston,MA,6119,(458) 6577365
Corabella Woodrough,069 Chinook Circle,Huntsville,AL,,(134) 8855045
Marne Matias,9820 Ridge Oak Junction,Toledo,OH,1770,(746) 5199947
Germain Weeks,1081 Miller Crossing,Portsmouth,NH,507 43,(340) 4710766
Kaye Caseley,3275 Tennyson Trail,Lancaster,PA,,(270) 5328363
Berry Preddy,47641 Bartelt Plaza,Oklahoma City,OK,,(142) 5096462
Nonnah Blei,379 Del Sol Pass,Las Cruces,NM,,(359) 6823848
Filbert Weatherhogg,779 Artisan Hill,Tucson,AZ,,(308) 3625468
Dyan Bushell,0 6th Terrace,El Paso,TX,92662,(714) 4252952
Godart Hugues,29705 Ronald Regan Terrace,Albany,NY,19892,(302) 9208379
Mirabelle Feben,4096 Onsgard Terrace,Waterbury,CT,87390-000,(283) 4829205
Erma Betje,3 Carioca Terrace,Roanoke,VA,,(563) 3649107
Odille Stripp,459 Westend Park,Louisville,KY,,(769) 1708136
Lonnie Wessell,2790 Hooker Plaza,New York City,NY,,(342) 5796180
Baillie Coleby,04 Raven Drive,Lansing,MI,,(334) 9912087
Wilie Gartell,50 Northview Way,Baltimore,MD,,(723) 5258190
Timmy Pischof,8 Tennyson Avenue,Dallas,TX,5109,(456) 6066043
Giavani Garrat,1775 Moland Point,New York City,NY,,(652) 9316464
Vinita Cristofvao,86 Prentice Way,Louisville,KY,56-200,(361) 8866487
Way Delle,06 Oneill Parkway,Lakeland,FL,55-340,(739) 7280440
Erasmus Guyet,3 Pond Terrace,Nashville,TN,188680,1
Rafi Enser,041 Prairie Rose Drive,Aurora,CO,,(412) 5138975
Niki Tyas,47 Orin Way,Rochester,NY,,(157) 1238825
Roberto Louiset,06 Kipling Crossing,Indianapolis,IN,911018,(431) 5499910
Sissie Dundon,6 Lillian Crossing,Los Angeles,CA,,(178) 5855463
Holden Gibbieson,9 Del Mar Avenue,Houston,TX,,(165) 4817771
Ludovika Bushell,22025 Golf Pass,Chicago,IL,76152 CEDEX,(955) 5354269
Gherardo Joisce,72 Farmco Street,Santa Monica,CA,,(421) 3459550
Rosene Epinay,73 Browning Crossing,Biloxi,MS,,(375) 4582321
Madlin Decreuze,81315 Anderson Drive,Oakland,CA,,(678) 2996968
Clem Falvey,7357 Kedzie Plaza,Indianapolis,IN,953 91,(159) 4138273
Bax Caren,4019 Grasskamp Crossing,Erie,PA,415 07,(651) 5148023
Hamel Kench,3705 Homewood Hill,Boise,ID,386150,(171) 7455405
Waylin Allcroft,44 Florence Hill,Henderson,NV,50981,(515) 6051898
Joyce Marchbank,0177 Corry Road,Huntington,WV,,(417) 1825000
Ashil Trembey,2 Evergreen Junction,Phoenix,AZ,91030,(771) 4513658
Joshua Ohm,60 Bay Point,Denver,CO,1050,(947) 9339184
Gordon Attwill,37785 International Street,Philadelphia,PA,,(343) 8837146
Welch Fitton,5 Bashford Pass,New Haven,CT,188910,(205) 9289774
Eberto Crannage,5522 Prairie Rose Parkway,Wilmington,DE,,(239) 2231450
Leena Matheson,56593 Knutson Circle,Washington,DC,,(538) 1465376
Cynthia MacArte,9 Cody Avenue,Brooklyn,NY,,(136) 2733837
Lorenzo Skyppe,22 Aberg Drive,Whittier,CA,,(461) 1891107
Kerrie Heball,0354 West Circle,New York City,NY,,(778) 7855337
Fin Castree,39527 Harbort Pass,Buffalo,NY,6005-005,(570) 5602417
Gianina Norvell,4462 Stone Corner Center,Bradenton,FL,,(557) 1130945
Karim Lithgow,5 Rutledge Court,Roanoke,VA,K1W,(146) 8376484
Fredericka Radleigh,87745 Farmco Way,Fort Lauderdale,FL,,(813) 2884845
Mady Bedboro,0177 Bayside Trail,Tucson,AZ,38204,(522) 4898682
Vincenty Paty,02025 Ridgeway Street,Tampa,FL,4890-561,(110) 7287989
Rozalin Castano,07130 Towne Way,Huntington,WV,18700-000,(379) 1193065
Kyla Iacomettii,3 Park Meadow Circle,Tyler,TX,,(849) 5751974
Selie Szymanek,51931 Lillian Court,Dayton,OH,,(260) 3011695
Merry Lupson,16 Fairview Place,Virginia Beach,VA,680999,(818) 1336261
Agosto Cornes,6 Corry Parkway,Detroit,MI,,(866) 9651703
Alexia Giacomasso,42158 Lakewood Place,Tuscaloosa,AL,40703,(643) 1252297
Stesha Emmanuel,34 Harper Junction,Philadelphia,PA,396026,(365) 9501787
Jervis Elliff,69276 Weeping Birch Pass,Philadelphia,PA,21260,(807) 6464872
Valentino Geddis,9746 Glacier Hill Alley,North Hollywood,CA,7103,(770) 9708872
Blisse Connal,6 Johnson Terrace,San Jose,CA,4424,(670) 3821155
Eustacia Grazier,66 Wayridge Street,San Antonio,TX,6309,(601) 2244968
Krystle Zoane,NIL,Saint Paul,MN,J5K,(594) 3716985
Sher Rooney,376 Lillian Drive,Alexandria,VA,,(864) 3879734
Anallese Girardoni,25 Dawn Avenue,Las Vegas,NV,,(900) 9105062
Blinny Bentinck,5 Pine View Drive,El Paso,TX,,(786) 9323603
Angie Brisard,51545 Lakewood Junction,Birmingham,AL,289-1211,(668) 6888807
Dory Cookney,3 Fairfield Pass,New Orleans,LA,46278,(317) 2185337
Willem ,7 Pepper Wood Terrace,Raleigh,NC,4980-233,(959) 8780472
Rogers Sowten,469 Farwell Drive,Portsmouth,NH,56057,(971) 8088201
Renard Dog,85973 Pleasure Pass,New Castle,PA,9000,(871) 1259012
Saunder Klink,644 Goodland Plaza,Houston,TX,201018,(736) 6754173
Bearnard Order,021 Commercial Alley,Indianapolis,IN,,(285) 1512952
Betta Grishunin,71352 Butterfield Center,Dallas,TX,8890,(431) 3301037
Ellyn McKie,299 Vera Trail,Dallas,TX,,(154) 9699577
Hillard Broddle,9430 Division Park,Jersey City,NJ,,(422) 7027955
Roseline Warters,3967 Marcy Crossing,Inglewood,CA,,(839) 7770699
Christyna Barbery,19685 Onsgard Center,San Jose,CA,243365,(781) 8273998
Oneida Pala,7 Hudson Avenue,San Jose,CA,,(609) 4787438
Jaymee Pillman,9 Park Meadow Pass,Albany,NY,,(787) 3286828
Luis Pantridge,2368 Helena Point,Peoria,IL,,(365) 6826994
Junie Greensmith,50265 Sutteridge Park,Providence,RI,,1
Gilly McManamon,908 Kings Point,San Francisco,CA,473008,(501) 9385324
Gaylene Porcas,66764 Petterle Road,New Haven,CT,184 34,(920) 6355126
Anthony McSkeagan,5 Arapahoe Avenue,Beaumont,TX,254 36,(608) 8958219
Lorena Gerrie,373 Orin Place,New York City,NY,,(601) 9474685
Marlo Thwaite,4 Golf View Point,Zephyrhills,FL,07-215,(685) 6355804
Myrvyn Coomes,556 Holy Cross Way,Indianapolis,IN,9811,(573) 3253001
Erminie Gorsse,06 Kennedy Parkway,Saginaw,MI,,(762) 7693278
Gusti Shevell,54389 Butterfield Pass,Columbus,OH,,(619) 6574788
Suzie Grob,1 Sheridan Trail,Seattle,WA,,(306) 1374055
Cinnamon Craigheid,7772 Artisan Place,Texarkana,TX,,(216) 7118922
Jill Mulliner,3839 Superior Circle,Mobile,AL,164 30,(858) 3964298
Conway McInility,03911 Westridge Hill,Fort Wayne,IN,4332,(431) 7896348
Kelcy Cod,36 Schiller Avenue,Bakersfield,CA,06073 CEDEX 1,(581) 1946453
Elroy Othick,2 Darwin Road,Long Beach,CA,,(823) 9912551
Caro Matzaitis,61 Sauthoff Plaza,Glendale,AZ,,(469) 7129621
Chance MacGahy,5 Hauk Circle,Dayton,OH,,(816) 5818446
Leonanie Stirland,2836 Arapahoe Place,Clearwater,FL,,(711) 7149202
Ninetta Scandred,29 Pepper Wood Court,Los Angeles,CA,429500,(770) 4809552
Allistir Struss,9 Esch Hill,Anniston,AL,,(294) 1761206
Thom Tettley,5 Hauk Drive,Clearwater,FL,3140-253,(283) 2209089
Kaylyn Palley,8069 Roth Court,Dallas,TX,7000,(140) 8417591
Charisse Tattersill,49198 Sherman Lane,Youngstown,OH,1444,(179) 5471119
Cristin Edelman,80 Morningstar Street,Atlanta,GA,2732,(160) 8397835
Blake Mishow,31361 Transport Court,Petaluma,CA,,(646) 6004930
Catlee Sexten,2 Bluejay Parkway,Tulsa,OK,,(845) 2646873
Claus Macquire,4 Meadow Vale Center,Los Angeles,CA,963-7856,(702) 5649618
Brody Dauney,504 Bayside Trail,Washington,DC,,(806) 1336084
Rhonda Esposi,4 Fisk Drive,Miami,FL,564 01,(807) 7765466
Leela Dooney,7031 Little Fleur Trail,Nashville,TN,692311,(906) 4878222
Maudie Nockalls,65 Bobwhite Lane,Louisville,KY,,(590) 3716600
Annette Sugar,23248 Oriole Park,Springfield,MA,35460-000,(724) 5859117
Ardelle Zute,61135 Surrey Alley,Lubbock,TX,,(555) 7829986
Carolan Diperaus,97 Paget Pass,El Paso,TX,694030,(241) 5441444
Nikoletta Domniney,6 Rigney Pass,Rochester,NY,,(519) 5596845
Christian Barson,5 Graedel Street,Marietta,GA,72240,(479) 2815862
Norry McAreavey,00 Starling Park,Nashville,TN,,(290) 4204123
Korey Degoix,70 Victoria Drive,Cincinnati,OH,366904,(159) 7942610
Amalea Yarmouth,1 David Lane,Seattle,WA,19-305,(900) 8087767
Gerrilee Trevithick,98231 Welch Pass,Mobile,AL,87-822,(883) 5878757
Carolynn Lecointe,21949 Kings Trail,Charleston,WV,5614,(772) 4872561
Anetta Alvarado,52 Holy Cross Circle,Charlotte,NC,,(508) 1593248
Torin Vanderplas,87149 Kipling Way,South Bend,IN,2434,(714) 2445150
Wolfy Pardoe,361 Bunting Trail,Washington,DC,,(473) 3940960
Dulcy Karby,66 Nelson Parkway,Jacksonville,FL,,(519) 8290010
Andrej L' Anglois,2 Golf View Alley,San Diego,CA,40000,(131) 1972022
Alaster Wesgate,118 Toban Crossing,Washington,DC,347942,(302) 8028163
Zorah Lemanu,446 Cody Avenue,North Hollywood,CA,,(550) 5811053
Cornie Carnall,9626 Village Green Road,Huntington,WV,49010 CEDEX 01,(634) 2075091
Krishna McMeyler,1120 Brickson Park Way,Fresno,CA,1630,(457) 6227840
Morey Jenkison,2 Thierer Drive,Atlanta,GA,97-217,(876) 7694254
Curtis Clitheroe,988 Holmberg Drive,Mobile,AL,33-240,(658) 9376711
Rudie Drains,324 Hoard Road,Wichita,KS,,(225) 6465421
Layla Lafflina,7201 8th Trail,Syracuse,NY,76-038,(621) 9008520
Annette Squires,510 Fremont Hill,Louisville,KY,36190,(812) 3773087
Eba Lankford,555 Mendota Park,Kent,WA,,(548) 9115670
Devi Males,34 Raven Pass,Atlanta,GA,563 01,(390) 8819521
Clarisse Withringten,131 Memorial Street,Albany,NY,532663,(378) 1468564
Nydia Hould,4 Bashford Park,Reading,PA,62580-000,(878) 6896494
Lynnea Brabban,14727 Ohio Center,Dallas,TX,,(785) 2163957
Gwennie McGlue,24784 Victoria Center,Camden,NJ,11120,(897) 9026980
Gun Shugg,9 Jenna Trail,New Haven,CT,62601,(384) 7719469
Edita Leftly,33269 Steensland Drive,San Bernardino,CA,26-650,(230) 4981384
Melody Twinborne,1 Butternut Parkway,Baton Rouge,LA,92725,(714) 3398439
Caterina Clendennen,64 Pine View Lane,Jackson,TN,16901,(962) 7806876
Sallee Pickerell,23 Graceland Pass,Portland,OR,,(474) 3949406
Kellyann Kisbey,63 Upham Drive,Raleigh,NC,941 22,(794) 5931721
Janifer Tiddy,32675 Autumn Leaf Parkway,Shawnee Mission,KS,165,(563) 7185453
Tonya Haily,7 Tomscot Street,Honolulu,HI,,(508) 9321267
Maegan Klosges,58403 Magdeline Road,Sacramento,CA,,(855) 3539825
Bernadette Ramet,104 Pepper Wood Lane,Houston,TX,5914,(423) 2785318
Hamlen Corrett,12 Garrison Parkway,Milwaukee,WI,,(214) 7496958
Evelyn Verne,3510 Kedzie Crossing,Rochester,NY,455-0054,(520) 9858637
Antonietta Collimore,6 Magdeline Pass,Honolulu,HI,434 33,(617) 4596305
Vladimir Greiser,01504 Morning Road,Orlando,FL,453430,(561) 5027047
Karna Wetton,8 Huxley Drive,Dallas,TX,416 80,(440) 5019628
Ethelda Lowen,0 Coolidge Terrace,El Paso,TX,,(457) 2009314
Jimmie Mound,63 Dixon Court,Sioux Falls,SD,,(541) 3282142
Olly Smallridge,23 West Lane,San Jose,CA,,(813) 8571263
Fergus Ling,590 Ohio Circle,Richmond,VA,,(880) 6493513
Adriana Tregidgo,3685 Golf Course Road,Des Moines,IA,,(510) 9016756
Cami Lyttle,0550 Express Trail,Salt Lake City,UT,,(868) 9548109
Justus Blaxall,75 Doe Crossing Drive,Tyler,TX,52245,(319) 3129046
Lindy Garmon,6 International Parkway,Oklahoma City,OK,424 55,(104) 7041761
Reg Nollet,06 Butternut Trail,Saint Cloud,MN,,(260) 2445710
Danit Collinwood,5303 Merrick Plaza,Charleston,WV,5030-566,(907) 7196576
Berky Krzysztofiak,5 Clyde Gallagher Lane,El Paso,TX,,(745) 7633959
Beauregard Paulillo,74 Gateway Lane,Fort Wayne,IN,99-150,(550) 4154849
Abbey Vicioso,3754 Scofield Lane,Midland,MI,05-170,(653) 9251627
Gil Trobey,554 Farwell Parkway,Albuquerque,NM,,(851) 1854635
Tomi Clutterham,2353 Hazelcrest Road,Portland,OR,,(273) 8052489
Tiffie Bifield,49052 Graceland Alley,West Palm Beach,FL,33480,(468) 1587380
Emelen Nussii,36311 Northridge Junction,Salt Lake City,UT,,(331) 4259710
Odelle Lyddon,55305 Arrowood Lane,Colorado Springs,CO,,(143) 1277874
Yance Swadling,087 Shoshone Circle,Inglewood,CA,781-3223,(202) 4242974
Harvey Mendes,3 Bluejay Avenue,Salt Lake City,UT,,(352) 2269194
Mira Hague,951 Waubesa Circle,New York City,NY,5420,(942) 2395873
Bendix Trotton,89 Hagan Court,Tacoma,WA,,(333) 9638679
Olly Bartkowiak,38685 Vidon Road,San Diego,CA,,(534) 1664888
Aguste McQuorkel,0395 Kennedy Terrace,Charlotte,NC,,(825) 8161475
Koo Tordoff,41404 Harbort Crossing,Fort Worth,TX,,(959) 6091325
Leonelle Plomer,80 Sauthoff Place,Memphis,TN,,(213) 3661639
Minta Fell,36 Old Gate Circle,Charleston,WV,,(899) 8743411
Cyndy Edlyne,3926 Jay Circle,Corpus Christi,TX,,(591) 5280872
Harmonie Barnhart,36461 Little Fleur Alley,Houston,TX,,(958) 4946782
Hugibert Rawstorn,41 Bartelt Hill,Newport News,VA,,(483) 8098499
Agneta Somerton,23658 Parkside Park,Cincinnati,OH,60112,(959) 8915021
Lisha Tomasutti,6233 Thackeray Road,Panama City,FL,8138,(424) 7765085
Jolee Buss,454 Doe Crossing Point,Kansas City,MO,55000-000,(277) 4579944
Margarette Biaggiotti,2 Hauk Way,Tulsa,OK,33901,(980) 4854197
Gannon Dobrovolny,20614 Hayes Court,Battle Creek,MI,525069,(680) 5306934
Fidelia Jeafferson,00 Havey Park,Charleston,WV,,(190) 7339502
Jojo Finlow,4 Lakewood Gardens Park,Las Vegas,NV,8504,(281) 8173156
Jarid Northedge,486 Shasta Crossing,Colorado Springs,CO,75660-000,(886) 1320495
Iggie Garrity,0 Continental Trail,Delray Beach,FL,5090-105,(293) 3245620
Linoel Petrozzi,25524 Shelley Drive,Saint Petersburg,FL,5504,(665) 9568512
Ailene Brezlaw,69 6th Point,Gainesville,GA,,(788) 8140918
Alvin Bluschke,38 Marquette Place,Kissimmee,FL,,(699) 7438410
Earle Dusting,3 Mayfield Pass,Washington,DC,5420,(299) 7804299
Johnette Hellyer,714 Tennyson Center,Muncie,IN,87-410,(516) 8732014
Avram Flageul,32416 Buell Place,Louisville,KY,,(229) 3639206
Neila Petri,57816 Eagan Place,Washington,DC,40110,(171) 1081125
Brynna Cornilli,20802 8th Circle,Los Angeles,CA,,(372) 3185253
Alyosha Toffano,70 Summerview Plaza,Washington,DC,,(237) 9734260
Alissa Shrieve,8185 Macpherson Park,Lawrenceville,GA,T8S,(721) 2121470
Jocelyn Brinson,1874 Mosinee Alley,El Paso,TX,663853,(350) 6790596
Willi Loeber,861 Waubesa Parkway,Oklahoma City,OK,,(395) 2503632
Mead Ridgway,207 Bunting Way,Schaumburg,IL,,(206) 9447493
Morris Goldring,64 Pepper Wood Pass,Norcross,GA,620-1445,(907) 6027781
Amby Lofty,704 Toban Court,Columbus,OH,,(840) 3284303
Barbette Guiett,20394 Pleasure Place,Columbus,OH,,(745) 5976859
Patten Sokale,95518 North Pass,Young America,MN,,(610) 6817358
Stefan Dipple,8 Dottie Way,San Antonio,TX,62690-000,(836) 5200064
Nester Primmer,67107 Riverside Crossing,Jacksonville,FL,4800-260,(940) 8081041
Nigel Emanulsson,90 School Trail,Oakland,CA,30505,(151) 5861138
Theobald Dalyiel,47388 Badeau Hill,Roanoke,VA,,1==1
Emmalynn Antonovic,18581 Tennyson Way,Washington,DC,,(674) 2957382
Sissie Lardner,1 Sutteridge Pass,Jamaica,NY,,(269) 1866372
Margeaux Kleinmintz,2 Vera Way,Richmond,VA,9073,(136) 7187981
Shelby Shmyr,87209 Raven Lane,Saint Louis,MO,,(967) 3749903
Josephine Lorence,84 Northview Alley,Jacksonville,FL,2235,(963) 9120922
Melony Nother,2 Novick Circle,Charlottesville,VA,9009,(270) 8449465
Deirdre Turnpenny,5 Farragut Trail,Norfolk,VA,,(327) 9437762
Leone Leas,17338 Shoshone Alley,Akron,OH,991-0041,(194) 3436766
Tulley Bentall,889 Chinook Junction,Baltimore,MD,,(290) 4578104
Dorelia Ingold,5561 1st Parkway,Tucson,AZ,84135,(786) 4265872
Chan Zorzi,7 Vahlen Alley,Saint Paul,MN,5012,(356) 8255595
Carlyn Todman,19 Leroy Park,Fort Lauderdale,FL,15190,(736) 6800896
Bethina Eddoes,97 Anzinger Trail,Houston,TX,33513,(400) 9669001
Cesaro Reah,65487 Springview Lane,Austin,TX,399734,(333) 1872405
Mabel Catanheira,4 Esker Alley,Wichita,KS,986-0303,(581) 4291425
Cristal Weitzel,4 Swallow Circle,Dallas,TX,39250,(217) 6939925
Hadlee Prando,84 Lawn Court,Canton,OH,,(249) 1671583
Melicent Huguet,78995 Fremont Crossing,Cedar Rapids,IA,,(554) 6998476
Angelique Heathcott,2787 Schurz Park,San Francisco,CA,,(803) 1767510
Cesare Trickey,1381 Pawling Crossing,San Antonio,TX,,(284) 9503828
Sauncho Lawless,1968 Stone Corner Pass,Lafayette,LA,874-0818,(704) 9114173
Sander MacNeachtain,80103 Reinke Lane,Lees Summit,MO,7040,(726) 1405708
Bartholomeus De Carteret,9 Almo Crossing,Las Cruces,NM,309-1127,(961) 2461353
Maximilian Gallemore,7 Mesta Terrace,Waterbury,CT,98400-000,(333) 7568410
Addie Biasetti,884 Sutteridge Circle,Waco,TX,,(106) 2369381
Verna Hutten,76 Waxwing Court,Huntsville,TX,,(493) 5196352
Minerva Cestard,3 Acker Plaza,Waterbury,CT,363303,(902) 3892847
Arny Goodwins,3 Londonderry Junction,Miami,FL,623641,(268) 2164548
Baudoin Beckwith,60 Del Sol Lane,Bradenton,FL,,(626) 1033264
Hermione Girkin,24 Sachtjen Drive,Huntsville,AL,,(112) 9848220
Janella Blann,20 Harbort Alley,Minneapolis,MN,2680,(499) 9078313
Lisbeth Owbridge,39 Mitchell Drive,Amarillo,TX,3500-548,(682) 8164295
Uriel Gilffillan,782 Chive Center,Seminole,FL,,(628) 6435136
Gnni Tebbut,14608 Cardinal Street,Alhambra,CA,,(882) 8405449
Mariejeanne Nind,825 Gale Lane,Tulsa,OK,,(778) 2412470
Bennie Normanell,5 Gateway Road,Mesa,AZ,,(300) 1790780
Thelma Feasley,184 Sycamore Park,Toledo,OH,,(408) 7083969
Sheelagh Murrell,71734 Manufacturers Circle,Rockford,IL,,(449) 9327276
Lenore Kippling,7910 Harper Crossing,Aiken,SC,286-0002,(970) 6821916
Kaspar Joscelin,50692 Vermont Avenue,Oklahoma City,OK,,(670) 3456028
Alexandra Lester,726 Ilene Lane,Birmingham,AL,31-999,(792) 2831068
Editha Breydin,0 Brown Trail,Amarillo,TX,,(327) 2995083
Guy Pykerman,7 Washington Crossing,Tucson,AZ,,(675) 2394771
Merridie Kupke,2210 Donald Hill,Orlando,FL,9006,(971) 8715205
Curt Dawkes,9077 Quincy Street,Chattanooga,TN,,(434) 4457285
Vaclav Frangleton,6 Paget Center,Englewood,CO,,(914) 2866108
Vilhelmina Georghiou,9 Fremont Crossing,Washington,DC,20-960,(593) 1243673
Ewan Coplestone,1 Stang Plaza,Springfield,MA,,(969) 2574140
Richmound Chasmer,886 Grayhawk Alley,Topeka,KS,,(597) 2470689
Linnea O' Shea,44 Scott Junction,Nashville,TN,,(526) 5094571
Gayleen Humblestone,2 Raven Court,Erie,PA,5707,(435) 6260571
Ilysa Panas,5596 Jenifer Drive,Tucson,AZ,,(859) 7896511
Pippy Kinrade,78 Luster Park,Salt Lake City,UT,2635-466,(195) 7449429
Peta Parkyn,6 Norway Maple Park,Portsmouth,NH,,(789) 2309559
Athene Fereday,36326 Grayhawk Way,Cincinnati,OH,629733,(247) 9738189
Jamesy Peach,08 South Circle,Raleigh,NC,407-0176,(596) 3302185
Wylma Feria,54 Fulton Road,Arlington,TX,,(983) 3034954
Mikel Crooks,28428 Gateway Trail,Fresno,CA,N0K,(230) 8096185
Marci Moxsom,05970 Mitchell Center,Amarillo,TX,71105,(318) 3552121
Alfred Treweke,73937 Kropf Drive,Houston,TX,,(994) 5518808
Dacie Follan,9 Prairie Rose Drive,Washington,DC,1101,(511) 3266374
Sinclair Tonner,27445 Oriole Trail,Charleston,WV,14300-000,(141) 6615852
Berty Steuart,1 Corscot Plaza,Fort Lauderdale,FL,J6W,(542) 2325462
Cecily Dunklee,885 Gale Center,Tampa,FL,2860-424,(801) 1034644
Galina Lindenbluth,2829 Arrowood Court,Tulsa,OK,,(507) 1392986
Christan Pawden,668 Tennyson Crossing,Charlotte,NC,779-1122,(974) 4994213
Steven Nelius,5 Village Green Parkway,San Antonio,TX,,(234) 2467954
Ursula Artz,4135 Lawn Court,Huntsville,TX,299-4336,(199) 7997326
Lishe Lewsam,98386 Bayside Park,Newton,MA,,(172) 6714254
Chelsea McManamon,615 Spaight Place,Fresno,CA,,(497) 4783185
Solomon Bebis,4 Fair Oaks Lane,Sacramento,CA,24010,(949) 5440123
Rivy Crichmere,522 Main Avenue,Salt Lake City,UT,,(452) 8523825
Reamonn Kopmann,81742 Schmedeman Parkway,Oklahoma City,OK,361366,(278) 2549928
Bobbie Theyer,96059 Pankratz Road,Cincinnati,OH,,(329) 7168624
Shirley Hyslop,870 Norway Maple Lane,Staten Island,NY,64795-000,(933) 4200132
Lazare Crockley,04625 Pankratz Parkway,Edmond,OK,,(728) 8504186
Nellie Attreed,55241 Cordelia Court,Fort Myers,FL,,(750) 5275714
Ivett Margerison,45550 Gale Pass,Inglewood,CA,,(312) 6472240
Zerk Drains,49463 Bluejay Junction,Charlotte,NC,,(445) 8269434
Eduardo Fattori,67360 Waubesa Hill,Glendale,AZ,,(567) 7337371
Waylin Siebart,337 Towne Plaza,Mobile,AL,,(157) 6475107
Eadmund Pierucci,88677 Lakeland Park,Greensboro,NC,,(576) 3537269
Wren Lodovichi,53758 Artisan Lane,Charleston,WV,83-230,(809) 4540918
Ferguson Knath,1 Blackbird Road,Salinas,CA,,(464) 1507349
Amitie Course,30 Mallard Center,Naples,FL,11210,(718) 7535929
Evaleen Yurshev,7 South Way,Minneapolis,MN,,(425) 1407551
Julita Matteoni,23068 Hoard Road,Columbia,SC,2624,(337) 8182088
Nata Boal,93 Arrowood Court,Virginia Beach,VA,152,(568) 1795527
Bird Deverick,9 Mockingbird Drive,Baltimore,MD,,(700) 3362237
Vaughn Lamburn,371 Carpenter Place,Pittsburgh,PA,10135,(344) 3852918
Verge Briffett,45381 Hooker Drive,Charlotte,NC,649154,(440) 1773694
Sophi Borland,07900 Ryan Crossing,Bronx,NY,140579,(977) 9655271
Rozelle Bilbie,75360 8th Road,Jefferson City,MO,5611,(752) 5855075
Pia Brunsden,70149 Holy Cross Avenue,Temple,TX,,(153) 8336849
Dorian McGuire,6580 Grover Way,Sioux Falls,SD,,(647) 6400627
Kearney Tofts,6 Sage Parkway,Boston,MA,,(635) 5704166
Archer Shambrook,9087 Susan Point,Scranton,PA,,(811) 2767474
Franky Thoms,59920 Oriole Drive,Saint Cloud,MN,,(627) 8519955
Harmonie Headings,0 Lotheville Terrace,Chula Vista,CA,,(156) 7567146
Randie Caisley,7173 Sheridan Court,Pensacola,FL,,(183) 1683123
Harmonia Davson,0 Schmedeman Plaza,Sacramento,CA,,(976) 3248748
Fianna Piffe,59 Truax Alley,Delray Beach,FL,,(169) 8426184
Read Bellefant,4 Brentwood Trail,San Diego,CA,,(186) 7109299
Leesa Earey,57 Bunting Plaza,Louisville,KY,4805-583,(613) 8616376
Dinah Volke,1 Milwaukee Circle,Houston,TX,,(777) 5940364
Stormy Duggan,5691 Hanover Way,Lexington,KY,,(785) 6733686
Omero Tester,45616 Farmco Way,Jamaica,NY,,(363) 9364303
Gretel Sineath,19 Stuart Crossing,Atlanta,GA,,(839) 3093346
Brendis Karpe,078 Mcguire Alley,Dallas,TX,6311,(468) 6101291
Harvey Roylance,3 Bluestem Avenue,Cincinnati,OH,346940,(678) 1527084
Ingamar Siddall,0 Luster Junction,Louisville,KY,,(410) 8830579
Coop Devon,42 Nova Point,Sioux City,IA,,(562) 8251238
Hedvige Coath,3 Sutteridge Terrace,Phoenix,AZ,36-020,(265) 5041442
Margi Stobbie,1847 Paget Point,Washington,DC,13568 CEDEX 02,(490) 7128742
Merle Jursch,41 Logan Lane,Fort Wayne,IN,2530-254,(295) 3086012
Kasper Dodamead,5752 Mayer Circle,Dallas,TX,4710-627,(752) 6369970
Rudyard Pittwood,1924 Warrior Alley,Kansas City,MO,34129,(438) 2906285
Odelle Chew,45057 Cascade Junction,Humble,TX,141196,(193) 4789211
Ardella Lowy,77 Cordelia Parkway,New York City,NY,,(554) 4962517
Iolande Nials,91 Waxwing Hill,Dallas,TX,,(835) 9955231
Jeddy Foister,3354 Buell Junction,Riverside,CA,7106,(230) 7672979
Alford Wykes,6 Bowman Street,Syracuse,NY,,(822) 1564710
Emiline Fairhall,9646 Mandrake Junction,Shreveport,LA,,(812) 5297199
Guglielmo Frapwell,3695 Mockingbird Place,Long Beach,CA,23612,(757) 5546623
William Elflain,654 Becker Alley,Albuquerque,NM,610-0331,(732) 8525721
Kit Ochterlony,7675 Fisk Hill,Chicago,IL,,(910) 5571268
Broddie Kerwick,9 Division Terrace,Saint Cloud,MN,44-246,(501) 3363583
Julie Andreassen,6 Schurz Circle,Camden,NJ,4560-061,(347) 4113857
Evelina Tungate,9961 Center Point,Miami,FL,78400-000,(527) 8405561
Teodorico Hise,266 Montana Center,Wilmington,DE,,(395) 1425226
Trina Poker,2 7th Terrace,Washington,DC,,(416) 5198658
May Grevile,9 Londonderry Parkway,Oklahoma City,OK,,(457) 8768721
Even Mellodey,5 Colorado Place,Philadelphia,PA,81720,(498) 2003757
Balduin Wevell,1 Dapin Center,New York City,NY,,(329) 2956790
Joelie Saggers,1 Granby Plaza,0/0,KY,,(339) 5831236
Katy Layland,6136 Donald Parkway,San Antonio,TX,,(268) 9129155
Dare Copland,3068 Independence Street,Tallahassee,FL,,(235) 6837805
Ferdy Purshouse,4 Logan Junction,Austin,TX,,(439) 8724964
Morie MacGibbon,5133 High Crossing Avenue,Fargo,ND,,(112) 9082922
Gretchen Brafield,89 Emmet Court,New York City,NY,,(721) 3452658
Cinnamon Cordova,6198 Dwight Center,Washington,DC,3515,(962) 9847535
Ludovico Petrowsky,21233 Becker Junction,Rockford,IL,89-620,(660) 4755406
Karon Dockwray,0 Loeprich Parkway,Newport News,VA,660004,(135) 3238864
Lorna Northrop,117 Ronald Regan Park,Sacramento,CA,,(339) 8363073
Donovan Rizziello,2 3rd Alley,San Diego,CA,6328,(450) 9811289
Janek Munro,436 Dexter Avenue,Washington,DC,,(767) 8656054
Weylin Kurton,5408 Kingsford Trail,Newport News,VA,91881 CEDEX,(626) 1571246
Hinda Hullot,80 Blaine Place,Evansville,IN,,(780) 9710068
Pattie Vasyunichev,58 Ohio Court,Milwaukee,WI,,(778) 2787264
Danyelle Hinstock,9820 High Crossing Junction,Birmingham,AL,5291,(837) 7027294
Neils Podmore,05 Anhalt Street,Raleigh,NC,,(523) 3235525
Mahalia Guwer,89950 Dawn Court,Tucson,AZ,,(427) 4109410
Clareta Giller,89474 Claremont Drive,Springfield,IL,63180-000,(642) 8356709
Sherwynd McVrone,088 Maple Avenue,Anderson,SC,252 68,(795) 1009636
Quill Dishman,76905 Moland Alley,Anchorage,AK,,(774) 9609042
Lucais Ceresa,7 Dakota Place,Orlando,FL,241521,(481) 2103975
Orelee Gillio,00 High Crossing Hill,Littleton,CO,5807,(124) 5765797
Ursola Swan,6284 Porter Alley,San Francisco,CA,,(427) 5726342
Gerome Redford,44956 Esker Circle,Philadelphia,PA,,(993) 7943946
Valera Bilson,9173 Grasskamp Way,Spokane,WA,5004,(993) 5149412
Lucien Wilcox,0206 Clove Hill,Austin,TX,,(264) 8205045
Dina Glossup,35305 Pond Trail,Charlotte,NC,,(758) 7754494
Averil Gillice,0093 Nancy Way,Saint Louis,MO,,(547) 2722445
Garv McGaughay,5 Farragut Court,Pasadena,CA,13-230,(189) 7696878
Cinderella Muckloe,2 Sutherland Crossing,Dallas,TX,40000,(991) 5939902
Thorin Berthot,1;DROP TABLE users,Chicago,IL,,(630) 6397286
Ad Dillestone,22633 International Road,Saint Louis,MO,,(520) 8611506
Jill Battlestone,766 Stoughton Place,South Bend,IN,,(940) 6321612
Lindsy Karlqvist,70 Kim Drive,Corpus Christi,TX,,(448) 6096904
Kendal Spink,286 Kingsford Avenue,Seattle,WA,,(546) 5501609
Stacy Stango,985 Mockingbird Avenue,Alexandria,VA,73210,(968) 2255022
Rickard Suddell,77 Mayer Place,Honolulu,HI,,(459) 3523878
Nicolis Callear,247 Cascade Lane,San Bernardino,CA,422102,(620) 2052073
Stevena Coyne,46680 Holy Cross Center,Memphis,TN,,(342) 3409617
Alexa Apple,57 Havey Alley,Meridian,MS,A41,(851) 4357280
Barry Aaronsohn,55 Declaration Hill,Garland,TX,,(159) 2611519
Hartwell Polotti,1416 Service Plaza,Huntington,WV,84913 CEDEX 9,(937) 6614325
Myrvyn Yo,3 Golf View Road,Houston,TX,,(977) 2360940
Sullivan Creeboe,1 Oriole Place,Laurel,MD,102745,(999) 2012677
Felicle Harrow,2521 New Castle Alley,Phoenix,AZ,,(440) 1398471
Der Felkin,2792 Dexter Street,San Diego,CA,34665,(407) 6948339
Belita McCrory,837 Summerview Alley,Jersey City,NJ,22-630,(462) 9819361
Deloria Crush,7042 Huxley Plaza,Dayton,OH,2750-109,(497) 6945080
Drusy Goford,0 Logan Circle,Mesquite,TX,633-0245,(820) 5751300
Salvidor Capel,4 Hudson Way,Lincoln,NE,,(641) 8893648
Albrecht Chastanet,91151 Duke Center,Long Beach,CA,,(398) 6621182
Rebekkah Orgee,8022 Buhler Center,Camden,NJ,,(164) 4433959
Niels Bareham,66 David Park,Orlando,FL,9227,(966) 8355519
Emeline Edgecumbe,27 Hallows Avenue,Birmingham,AL,6419,(330) 3139209
Garik Toxell,4 Transport Point,Arlington,TX,618548,(386) 7014043
Matias Riggulsford,63 Corry Road,Washington,DC,252 45,(103) 3184844
Base Trubshawe,62 Carioca Way,Jamaica,NY,26485,(920) 7536791
Ninnetta Belchamp,2484 West Court,San Jose,CA,84200,(118) 4911505
Huntlee Camilleri,1 Towne Road,Conroe,TX,68370-000,(713) 2653757
Effie Macguire,4295 Sommers Point,Flint,MI,,(903) 3246362
Sheilakathryn Duberry,1836 Northwestern Pass,Merrifield,VA,960-0808,(867) 8021419
Tiebold Cheel,48 Meadow Vale Terrace,Dallas,TX,,(984) 2255775
Eugine Mordacai,06391 Pennsylvania Court,Sarasota,FL,,(696) 6429147
Charlot Lavers,3669 Lukken Alley,Washington,DC,L-4354,(242) 4776992
Phil Balchen,423 Mccormick Road,Falls Church,VA,M2K,(502) 6718933
Cissiee Mercey,71 Westridge Court,Kansas City,MO,,(835) 9565835
Tessa Goschalk,1 Cherokee Parkway,Greensboro,NC,98135,(782) 9576860
Sharity Manuello,03251 Graceland Hill,Milwaukee,WI,,(991) 9330807
Alysia Mack,84 Heath Lane,Sacramento,CA,779-1122,(842) 6392865
Beverley Lean,596 Holmberg Court,Santa Monica,CA,,(313) 8993206
Clareta Trevascus,1 John Wall Trail,Lakeland,FL,,(595) 7627361
Mikel De Cristofalo,8003 Oxford Park,Pittsburgh,PA,87500-000,(734) 5467916
Grier Stoker,764 Packers Drive,Brea,CA,361515,(399) 4664820
Augusto Stut,25824 Kennedy Crossing,Des Moines,IA,5513,(227) 2697607
Ophelia McCague,63 Blue Bill Park Hill,Saint Louis,MO,,(880) 7602418
Maggee Tolussi,9 5th Pass,El Paso,TX,,(490) 7932220
Yves Downie,48 6th Place,Lubbock,TX,,(496) 3766936
Chic Real,7648 Larry Lane,San Antonio,TX,,(710) 7451419
Ashia Dirand,09220 Manufacturers Plaza,Washington,DC,2512,(291) 1662497
Bird O'Hara,2226 Old Gate Street,Charlotte,NC,43210,(690) 8006034
Nana Tidgewell,94361 Porter Parkway,New Orleans,LA,,(607) 5274615
Gilberta Richfield,5 Hoepker Plaza,New Brunswick,NJ,361515,(961) 7234217
Lexi Kintzel,10 Bay Terrace,Minneapolis,MN,,(176) 9984630
Humfried Ravenshear,4120 Colorado Point,Salt Lake City,UT,,(328) 8072328
Stepha Bierling,0 Stone Corner Street,Roanoke,VA,,(832) 6341349
Herve Kee,04 Ryan Way,Oklahoma City,OK,,(574) 4777100
Avigdor Ruthen,0 Schiller Parkway,Minneapolis,MN,,(870) 2697169
Arleyne Tinman,77092 Randy Junction,Washington,DC,19725,(302) 4309084
Margery Hallybone,85 Marcy Junction,Syracuse,NY,412975,(867) 8312825
Darrin Sparling,65744 Donald Circle,Toledo,OH,,(942) 6335617
Fidel Clibbery,09510 Lotheville Parkway,Gainesville,FL,,(724) 2785967
Suzanna Pacitti,00 Dapin Parkway,Fort Wayne,IN,,(839) 9620170
Guy Decroix,15 Rockefeller Way,Kansas City,MO,1981,(345) 1909580
Vasily Slowgrove,761 Schiller Center,Honolulu,HI,,(618) 4338212
Valida Parriss,1665 Pawling Drive,Daytona Beach,FL,,(256) 7871987
Quint Vigours,65 Rieder Lane,Kansas City,MO,,(773) 8147188
Philbert Parnall,556 Jana Junction,Chicago,IL,12210,(577) 8134919
Vidovik Hartland,7179 Canary Crossing,Pensacola,FL,,(505) 2153000
Teddie Lonie,5325 Mallory Center,Indianapolis,IN,23009 CEDEX,(978) 3020322
Valencia Gorner,56000 Butterfield Way,Trenton,NJ,307602,(901) 7210665
Prent Janjic,163 Melby Center,Huntsville,TX,,(605) 6620108
Gwendolyn Witchalls,242 Sheridan Alley,Amarillo,TX,56001,(631) 7676039
